#dP2024  6  5 18  0  0.00000000      96 __u+U IGS20 EXT  IAC
## 2317 324000.00000000   900.00000000 60466 0.7500000000000
+   54   G02G03G04G05G06G07G08G09G10G11G12G13G14G15G16G17G18
+        G19G20G21G22G23G24G25G26G27G28G29G30G31G32R01R02R03
+        R04R05R07R08R09R11R12R13R14R15R16R17R18R19R20R21R22
+        R24R25R26  0  0  0  0  0  0  0  0  0  0  0  0  0  0
+          0  0  0  0  0  0  0  0  0  0  0  0  0  0  0  0  0
++         7  7  8  8  8  7  7  7  6  8  8  8  7  9  7  8  8
++         8  8  8  9  7  8  8  7  7  8  7  7  8  8  7  9  8
++         9  6  8  7  8  9  7  8  9  8  9  8  8  9  9  7  7
++         9  7  8  0  0  0  0  0  0  0  0  0  0  0  0  0  0
++         0  0  0  0  0  0  0  0  0  0  0  0  0  0  0  0  0
%c M  cc GPS ccc cccc cccc cccc cccc ccccc ccccc ccccc ccccc
%c cc cc ccc ccc cccc cccc cccc cccc ccccc ccccc ccccc ccccc
%f  0.0000000  0.000000000  0.00000000000  0.000000000000000
%f  0.0000000  0.000000000  0.00000000000  0.000000000000000
%i    0    0    0    0      0      0      0      0         0
%i    0    0    0    0      0      0      0      0         0
/* IAC                                ULTRA-RAPID PREDICTION
/* S/V CLOCKS ARE ALIGNED TO GNSS TIME                      
/* G:C1WC2W R:C1PC2P E:C1XC5X C:C2IC6I J:C1CC2S             
/* PCV:IGS20_2315 OL/AL:FES2004  NONE     YN ORB:CoN CLK:CoN
*  2024 06 05 19 30  0.00000000
PG02   3512.748130  14436.718236 -21541.310323   -423.164215
PG03  11784.176507  22907.122192  -6889.494156    399.368065
PG04   1626.776921  21757.483775  15071.159957    376.857548
PG05    395.835532 -18927.200663  18411.621367   -175.276846
PG06  25899.664624  -5254.754229   3259.160393    234.819468
PG07  21707.846721   7410.097366  14297.017358   -101.857998
PG08  -5100.921014  25238.848417  -5626.346626    215.347002
PG09  11316.886313  11605.928300  20948.902015    223.478092
PG10 -18569.266907  -3984.357287 -18497.744883    -36.696617
PG11  18258.683237 -12028.204874  15065.031437   -679.002772
PG12  -8579.906638 -23724.218948  -8667.691445   -511.581628
PG13  13680.775695 -22602.507312    516.580710    655.840247
PG14  19866.267342   7531.630826 -16034.340336    418.313352
PG15   1664.156748 -25820.959857  -6019.394522    166.908239
PG16  -5470.599481  16631.509020  19501.742521   -272.375683
PG17  16699.467647  -2850.968635 -20081.002988    698.594886
PG18 -22122.373907  -6560.042627  13340.396129   -620.985608
PG19  18255.618572 -11135.082813 -15670.042808    492.247519
PG20   8939.380183 -12618.894012  21663.125541    374.156966
PG21  -1918.118831  15435.430879 -20941.761242    117.290403
PG22  16572.133927   -310.566849 -20269.458992    -23.409513
PG23 -20219.621606 -14296.808258  -9850.585959    243.163178
PG24  -1668.952875 -15989.172301 -21540.312063   -475.597897
PG25 -16482.398631 -21010.048019   -369.216291    496.910329
PG26 -15498.900846   5808.200019  20677.988603    141.757595
PG27 -12699.557806  22480.808928   4890.994935    -27.104961
PG28 -26126.293625   4748.492837    516.086715   -275.682961
PG29  -8071.503657 -14922.938871  20349.971845   -595.513658
PG30  26366.791827   -261.045150   4377.265876   -379.019463
PG31 -22199.360546  10145.044567  10725.656127   -227.547771
PG32 -16863.968508   5706.617176 -19432.640032   -617.030097
PR01  -9952.334997 -11173.786180 -20650.313543     87.536860
PR02 -10429.370432   7377.651349 -22020.079249    -23.184551
PR03  -5393.996302  22411.085498 -10815.035321    101.519967
PR04   2155.429924  24708.413300   5971.595642    239.758705
PR05   8672.099223  13853.911862  19590.546520    132.632201
PR07   5148.067424 -22841.769741  10218.303347     83.929946
PR08  -2437.834537 -24660.357576  -6051.596645     -4.623170
PR09  19681.340300   1722.394601 -16163.962201    190.581644
PR11  -9851.764379 -15444.347198 -17727.607400     22.374644
PR12 -21953.915407 -12998.078164   -137.083687     40.969926
PR13 -20716.731857  -3926.297547  14345.949156    -48.076169
PR14  -5860.142144   9493.849334  22954.367872     26.550970
PR15  11135.849325  15852.598339  16622.475184     79.110371
PR16  21950.758078  13027.201438    441.052380     26.209611
PR17 -16408.358882  15355.112546 -12107.544132     93.211611
PR18  -1709.366658  12328.495933 -22248.112713    145.583261
PR19  12429.065939   4702.171738 -21778.205757   -279.236046
PR20  23292.417287  -8396.446821  -6216.029801   -113.987909
PR21  16689.930408 -15140.108547  11919.719262   -106.798684
PR22    701.320913 -12224.882449  22399.797777    105.933072
PR24 -22968.979065   9585.054993   5639.715016    -58.682190
PR25  16685.709410 -14853.039076  12295.704450    -30.596058
PR26  -2023.726897 -24944.250296  -4842.289580     -6.927432
*  2024 06 05 19 45  0.00000000
PG02   1028.112573  15044.694514 -21364.233111   -423.157962
PG03  11078.350359  22299.727658  -9577.809146    399.384724
PG04    835.939273  23161.900097  12868.497708    376.864925
PG05   1975.200221 -17361.743043  19795.180720   -175.278060
PG06  26121.498938  -5123.007272    363.549575    234.800843
PG07  20102.944030   7845.062097  16301.565180   -101.846784
PG08  -5540.131136  25595.448979  -2816.321603    215.363948
PG09  10463.697854  13811.650487  20033.387321    223.491093
PG10 -19787.943455  -5622.496956 -16774.979820    -36.703582
PG11  19864.970097 -12031.479608  12861.164991   -679.010371
PG12  -7766.711173 -22954.449766 -11211.865134   -511.584535
PG13  13776.620498 -22268.200312   3395.680251    655.842675
PG14  20771.302742   9009.349456 -14021.300421    418.321609
PG15   2084.118288 -26225.741436  -3270.820768    166.911998
PG16  -6911.806051  14746.481738  20555.337032   -272.366372
PG17  15780.544142   -600.904692 -20965.186014    698.590403
PG18 -20523.473541  -6951.168556  15505.163721   -620.990251
PG19  17568.756454  -9373.021414 -17552.977428    492.252350
PG20  10817.331610 -11017.545934  21667.390248    374.156630
PG21  -4328.106884  15946.443055 -20110.128912    117.288289
PG22  17796.363869   1693.335067 -19129.060204    -23.414077
PG23 -20728.871505 -15141.123769  -7193.494169    243.171526
PG24    633.370580 -16546.210080 -21126.614978   -475.600449
PG25 -16175.655339 -21054.572083  -3180.163562    496.910864
PG26 -17077.354311   4059.776375  19874.728433    141.752115
PG27 -12699.760922  21671.937190   7650.423253    -27.106324
PG28 -26075.642077   4477.928739  -2337.583407   -275.698297
PG29  -7027.006490 -16940.051557  19113.839030   -595.512218
PG30  25788.674855    133.957626   7063.770412   -379.014002
PG31 -23320.022862  10080.987681   8190.668439   -227.547622
PG32 -16173.030075   3474.954740 -20522.792596   -617.029265
PR01 -10140.171141 -13617.143246 -19027.404744     87.537881
PR02 -10414.790465   4599.661612 -22773.145451    -23.184656
PR03  -5288.322181  20895.290973 -13549.041528    101.520690
PR04   2335.846575  25244.722410   2802.630381    239.760333
PR05   8790.907560  16152.499991  17681.573505    132.632767
PR07   5027.889774 -21414.737879  12997.703131     83.930791
PR08  -2608.446859 -25217.571159  -2895.315412     -4.623650
PR09  21358.672166   2497.102617 -13765.496810    190.583619
PR11  -7859.244223 -14278.899948 -19601.175061     22.373549
PR12 -21826.805387 -12776.714658  -3332.610846     40.970363
PR13 -22188.274233  -4585.561615  11709.435675    -48.076466
PR14  -8343.293077   8175.986749  22689.702720     26.550960
PR15   9269.826442  14737.664378  18669.496716     79.110079
PR16  21804.830305  12771.161964   3641.051947     26.209939
PR17 -17454.035414  16174.839823  -9242.513372     93.214634
PR18  -3995.893752  13730.816313 -21100.826021    145.584964
PR19   9978.152677   5947.372127 -22715.091068   -279.237310
PR20  22349.428689  -8130.884639  -9273.886817   -113.988559
PR21  17720.539767 -15946.123782   9030.782415   -106.801509
PR22   3049.571254 -13554.825152  21416.314741    105.929673
PR24 -22134.812848   9260.900532   8693.505845    -58.683436
PR25  17805.981235 -15605.469528   9465.105632    -30.624073
PR26  -2193.564366 -25344.502466  -1652.739932     -6.926709
EOF
